GPS BIIF-4              
1 39166U 13023A   26060.98893270  .00000006  00000+0  00000+0 0  9998
2 39166  54.5878 273.3391 0141552  49.8819 311.3944  2.00564153 93732
INSAT-3D                
1 39216U 13038B   26063.85457584 -.00000348  00000+0  00000+0 0  9993
2 39216   1.6566  83.9077 0001748 242.9990 272.8215  1.00273268 46035
GPS BIIF-5              
1 39533U 14008A   26062.98170139  .00000002  00000+0  00000+0 0  9990
2 39533  53.6377 153.6123 0082291 228.2820 131.0416  2.00553063 87570
LUCH 5V                 
1 39727U 14023A   26063.66723760 -.00000277  00000+0  00000+0 0  9997
2 39727   4.8756  70.7724 0003028 279.5145 147.0614  1.00271709 43314
GPS BIIF-6              
1 39741U 14026A   26063.75840403 -.00000098  00000+0  00000+0 0  9991
2 39741  56.5463 335.5859 0039865 324.5417  35.2288  2.00568672 86446
GPS BIIF-7              
1 40105U 14045A   26063.34733320  .00000009  00000+0  00000+0 0  9993
2 40105  55.2811  92.6405 0031518 120.4916 239.8880  2.00551475 83975
GSAT0201 (GALILEO 5)    
1 40128U 14050A   26062.23675925 -.00000027  00000+0  00000+0 0  9998
2 40128  48.9889 277.7718 1657553 175.2875 186.5034  1.85520013 76352
GSAT0202 (GALILEO 6)    
1 40129U 14050B   26061.95370111 -.00000024  00000+0  00000+0 0  9993
2 40129  49.0058 276.8679 1658464 176.0142 185.5046  1.85520711 78514
GPS BIIF-8              
1 40294U 14068A   26063.22546720 -.00000078  00000+0  00000+0 0  9997
2 40294  56.9194  34.9987 0062784  68.0520 292.5993  2.00569806 83100
GLONASS-K 2             
1 40315U 14075A   26060.84023701 -.00000015  00000+0  00000+0 0  9994
2 40315  63.6170 194.0851 0020735 205.7160 154.1408  2.13101099 87569
GPS BIIF-9              
1 40534U 15013A   26063.35680113 -.00000005  00000+0  00000+0 0  9994
2 40534  53.1863 208.5115 0108747  39.7916 320.9454  2.00557614 79720
GSAT0203 (GALILEO 7)    
1 40544U 15017A   26058.52158611 -.00000103  00000+0  00000+0 0  9994
2 40544  56.8234 344.5881 0005161 295.0116  64.9415  1.70475495 67337
GSAT0204 (GALILEO 8)    
1 40545U 15017B   26058.19060141 -.00000102  00000+0  00000+0 0  9997
2 40545  56.8295 344.6151 0004389 286.3298  73.6287  1.70475370 30371
GPS BIIF-10             
1 40730U 15033A   26063.51733907 -.00000014  00000+0  00000+0 0  9992
2 40730  54.0645 271.4003 0114500  28.9808 331.6783  2.00561598 77891
METEOSAT-11 (MSG-4)     
1 40732U 15034A   26063.37683795  .00000051  00000+0  00000+0 0  9998
2 40732   2.9374  71.6812 0001803 270.6417 324.8599  1.00266090  6164
GSAT0205 (GALILEO 9)    
1 40889U 15045A   26043.95434207  .00000078  00000+0  00000+0 0  9996
2 40889  53.6403 225.6057 0359599  59.9658 303.5577  1.67410800 64211
GSAT0206 (GALILEO 10)   
1 40890U 15045B   26061.69895769  .00000010  00000+0  00000+0 0  9999
2 40890  54.9811 224.5416 0003832  50.0037 309.9714  1.70473640 65226
